{"type": "FeatureCollection", "features": [ {"type": "Feature", "properties": {"norad_id": 34570, "name": "COSMOS 2251 DEB", "group": "cosmos-2251-debris", "lat": 65.70200530463647, "lon": -98.44075575836317, "alt_km": 771.3776139456604, "timestamp": "2025-12-10T14:53:37.482562+00:00", "meta": {"OBJECT_NAME": "COSMOS 2251 DEB", "OBJECT_ID": "1993-036VG", "EPOCH": "2025-12-10T01:09:18.156384", "MEAN_MOTION": 13.99812722, "ECCENTRICITY": 0.01902151, "INCLINATION": 73.9575, "RA_OF_ASC_NODE": 222.9632, "ARG_OF_PERICENTER": 106.0591, "MEAN_ANOMALY": 323.0452, "EPHEMERIS_TYPE": 0, "CLASSIFICATION_TYPE": "U", "NORAD_CAT_ID": 34570, "ELEMENT_SET_NO": 999, "REV_AT_EPOCH": 85563, "BSTAR": 0.00062307435, "MEAN_MOTION_DOT": 1.045e-05, "MEAN_MOTION_DDOT": 0}, "tle": {"line1": "1 34570U 93036VG  25344.04812681  .00001045  00000+0  62307-3 0  9998", "line2": "2 34570  73.9575 222.9632 0190215 106.0591 323.0452 13.99812722855633"}}, "geometry": {"type": "Point", "coordinates": [-98.44075575836317, 65.70200530463647]}}, {"type": "Feature", "properties": {"norad_id": 34571, "name": "COSMOS 2251 DEB", "group": "cosmos-2251-debris", "lat": -74.02101325186479, "lon": 98.2269127238913, "alt_km": 705.2667998666657, "timestamp": "2025-12-10T14:53:37.482571+00:00", "meta": {"OBJECT_NAME": "COSMOS 2251 DEB", "OBJECT_ID": "1993-036VH", "EPOCH": "2025-12-09T06:09:38.106720", "MEAN_MOTION": 14.48721172, "ECCENTRICITY": 0.0066557, "INCLINATION": 74.0386, "RA_OF_ASC_NODE": 188.9585, "ARG_OF_PERICENTER": 224.7562, "MEAN_ANOMALY": 134.8218, "EPHEMERIS_TYPE": 0, "CLASSIFICATION_TYPE": "U", "NORAD_CAT_ID": 34571, "ELEMENT_SET_NO": 999, "REV_AT_EPOCH": 87243, "BSTAR": 0.0025604, "MEAN_MOTION_DOT": 9.914e-05, "MEAN_MOTION_DDOT": 0}, "tle": {"line1": "1 34571U 93036VH  25343.25669105  .00009914  00000+0  25604-2 0  9993", "line2": "2 34571  74.0386 188.9585 0066557 224.7562 134.8218 14.48721172872439"}}, "geometry": {"type": "Point", "coordinates": [98.2269127238913, -74.02101325186479]}}, {"type": "Feature", "properties": {"norad_id": 34572, "name": "COSMOS 2251 DEB", "group": "cosmos-2251-debris", "lat": 54.04314572439659, "lon": -83.79051569961601, "alt_km": 705.4546220108768, "timestamp": "2025-12-10T14:53:37.482580+00:00", "meta": {"OBJECT_NAME": "COSMOS 2251 DEB", "OBJECT_ID": "1993-036VJ", "EPOCH": "2025-12-08T19:57:57.467232", "MEAN_MOTION": 14.49880112, "ECCENTRICITY": 0.00633866, "INCLINATION": 74.0103, "RA_OF_ASC_NODE": 122.8558, "ARG_OF_PERICENTER": 197.3594, "MEAN_ANOMALY": 313.4756, "EPHEMERIS_TYPE": 0, "CLASSIFICATION_TYPE": "U", "NORAD_CAT_ID": 34572, "ELEMENT_SET_NO": 999, "REV_AT_EPOCH": 87321, "BSTAR": 0.0045546046, "MEAN_MOTION_DOT": 0.00018073, "MEAN_MOTION_DDOT": 0}, "tle": {"line1": "1 34572U 93036VJ  25342.83191513  .00018073  00000+0  45546-2 0  9993", "line2": "2 34572  74.0103 122.8558 0063386 197.3594 313.4756 14.49880112873211"}}, "geometry": {"type": "Point", "coordinates": [-83.79051569961601, 54.04314572439659]}}, {"type": "Feature", "properties": {"norad_id": 34574, "name": "COSMOS 2251 DEB", "group": "cosmos-2251-debris", "lat": -32.58758716148965, "lon": -122.24178369068447, "alt_km": 703.4895804894095, "timestamp": "2025-12-10T14:53:37.482589+00:00", "meta": {"OBJECT_NAME": "COSMOS 2251 DEB", "OBJECT_ID": "1993-036VL", "EPOCH": "2025-12-10T06:01:06.425184", "MEAN_MOTION": 14.705605, "ECCENTRICITY": 0.00668308, "INCLINATION": 74.069, "RA_OF_ASC_NODE": 47.9539, "ARG_OF_PERICENTER": 69.7252, "MEAN_ANOMALY": 346.8589, "EPHEMERIS_TYPE": 0, "CLASSIFICATION_TYPE": "U", "NORAD_CAT_ID": 34574, "ELEMENT_SET_NO": 999, "REV_AT_EPOCH": 88742, "BSTAR": 0.0013197017, "MEAN_MOTION_DOT": 8.276e-05, "MEAN_MOTION_DDOT": 0}, "tle": {"line1": "1 34574U 93036VL  25344.25076881  .00008276  00000+0  13197-2 0  9994", "line2": "2 34574  74.0690  47.9539 0066830  69.7252 346.8589 14.70560500887422"}}, "geometry": {"type": "Point", "coordinates": [-122.24178369068447, -32.58758716148965]}}, {"type": "Feature", "properties": {"norad_id": 34576, "name": "COSMOS 2251 DEB", "group": "cosmos-2251-debris", "lat": -57.43290864811158, "lon": 115.58099433804543, "alt_km": 709.5568615939337, "timestamp": "2025-12-10T14:53:37.482598+00:00", "meta": {"OBJECT_NAME": "COSMOS 2251 DEB", "OBJECT_ID": "1993-036VN", "EPOCH": "2025-12-09T21:43:33.778848", "MEAN_MOTION": 14.55389874, "ECCENTRICITY": 0.00079986, "INCLINATION": 74.0337, "RA_OF_ASC_NODE": 143.5662, "ARG_OF_PERICENTER": 278.3289, "MEAN_ANOMALY": 234.1311, "EPHEMERIS_TYPE": 0, "CLASSIFICATION_TYPE": "U", "NORAD_CAT_ID": 34576, "ELEMENT_SET_NO": 999, "REV_AT_EPOCH": 88425, "BSTAR": 0.0012352619, "MEAN_MOTION_DOT": 5.342e-05, "MEAN_MOTION_DDOT": 0}, "tle": {"line1": "1 34576U 93036VN  25343.90525207  .00005342  00000+0  12353-2 0  9992", "line2": "2 34576  74.0337 143.5662 0007998 278.3289 234.1311 14.55389874884256"}}, "geometry": {"type": "Point", "coordinates": [115.58099433804543, -57.43290864811158]}}, {"type": "Feature", "properties": {"norad_id": 34579, "name": "COSMOS 2251 DEB", "group": "cosmos-2251-debris", "lat": -50.83677229878082, "lon": 68.38990893473053, "alt_km": 738.6819628759067, "timestamp": "2025-12-10T14:53:37.482606+00:00", "meta": {"OBJECT_NAME": "COSMOS 2251 DEB", "OBJECT_ID": "1993-036VR", "EPOCH": "2025-12-10T02:52:51.031776", "MEAN_MOTION": 14.45296122, "ECCENTRICITY": 0.00275763, "INCLINATION": 74.053, "RA_OF_ASC_NODE": 228.7701, "ARG_OF_PERICENTER": 297.8058, "MEAN_ANOMALY": 212.875, "EPHEMERIS_TYPE": 0, "CLASSIFICATION_TYPE": "U", "NORAD_CAT_ID": 34579, "ELEMENT_SET_NO": 999, "REV_AT_EPOCH": 88136, "BSTAR": 0.00058708856, "MEAN_MOTION_DOT": 2.044e-05, "MEAN_MOTION_DDOT": 0}, "tle": {"line1": "1 34579U 93036VR  25344.12003509  .00002044  00000+0  58709-3 0  9998", "line2": "2 34579  74.0530 228.7701 0027576 297.8058 212.8750 14.45296122881369"}}, "geometry": {"type": "Point", "coordinates": [68.38990893473053, -50.83677229878082]}}, {"type": "Feature", "properties": {"norad_id": 34582, "name": "COSMOS 2251 DEB", "group": "cosmos-2251-debris", "lat": -7.277609415035765, "lon": 98.4152030465103, "alt_km": 783.1551472717738, "timestamp": "2025-12-10T14:53:37.482615+00:00", "meta": {"OBJECT_NAME": "COSMOS 2251 DEB", "OBJECT_ID": "1993-036VU", "EPOCH": "2025-12-10T05:42:44.851968", "MEAN_MOTION": 14.43302941, "ECCENTRICITY": 0.00477135, "INCLINATION": 74.02, "RA_OF_ASC_NODE": 277.0291, "ARG_OF_PERICENTER": 27.7279, "MEAN_ANOMALY": 332.6406, "EPHEMERIS_TYPE": 0, "CLASSIFICATION_TYPE": "U", "NORAD_CAT_ID": 34582, "ELEMENT_SET_NO": 999, "REV_AT_EPOCH": 87911, "BSTAR": 0.0012002099, "MEAN_MOTION_DOT": 4.075e-05, "MEAN_MOTION_DDOT": 0}, "tle": {"line1": "1 34582U 93036VU  25344.23801912  .00004075  00000+0  12002-2 0  9999", "line2": "2 34582  74.0200 277.0291 0047713  27.7279 332.6406 14.43302941879112"}}, "geometry": {"type": "Point", "coordinates": [98.4152030465103, -7.277609415035765]}}, {"type": "Feature", "properties": {"norad_id": 34588, "name": "COSMOS 2251 DEB", "group": "cosmos-2251-debris", "lat": -66.02406264461528, "lon": 132.22237209181154, "alt_km": 754.7752836764757, "timestamp": "2025-12-10T14:53:37.482625+00:00", "meta": {"OBJECT_NAME": "COSMOS 2251 DEB", "OBJECT_ID": "1993-036WA", "EPOCH": "2025-12-10T06:06:05.980896", "MEAN_MOTION": 14.42009503, "ECCENTRICITY": 0.00191286, "INCLINATION": 74.0439, "RA_OF_ASC_NODE": 272.8608, "ARG_OF_PERICENTER": 325.7964, "MEAN_ANOMALY": 185.2763, "EPHEMERIS_TYPE": 0, "CLASSIFICATION_TYPE": "U", "NORAD_CAT_ID": 34588, "ELEMENT_SET_NO": 999, "REV_AT_EPOCH": 87914, "BSTAR": 0.00078319686, "MEAN_MOTION_DOT": 2.55e-05, "MEAN_MOTION_DDOT": 0}, "tle": {"line1": "1 34588U 93036WA  25344.25423589  .00002550  00000+0  78320-3 0  9999", "line2": "2 34588  74.0439 272.8608 0019128 325.7964 185.2763 14.42009503879146"}}, "geometry": {"type": "Point", "coordinates": [132.22237209181154, -66.02406264461528]}}, {"type": "Feature", "properties": {"norad_id": 34589, "name": "COSMOS 2251 DEB", "group": "cosmos-2251-debris", "lat": 16.190088018495384, "lon": -125.15884232750001, "alt_km": 1114.9634146874387, "timestamp": "2025-12-10T14:53:37.482633+00:00", "meta": {"OBJECT_NAME": "COSMOS 2251 DEB", "OBJECT_ID": "1993-036WB", "EPOCH": "2025-12-09T12:13:17.410656", "MEAN_MOTION": 13.8604857, "ECCENTRICITY": 0.02517935, "INCLINATION": 73.9254, "RA_OF_ASC_NODE": 61.5361, "ARG_OF_PERICENTER": 5.5277, "MEAN_ANOMALY": 13.2328, "EPHEMERIS_TYPE": 0, "CLASSIFICATION_TYPE": "U", "NORAD_CAT_ID": 34589, "ELEMENT_SET_NO": 999, "REV_AT_EPOCH": 84667, "BSTAR": 0.00037001793, "MEAN_MOTION_DOT": 5.22e-06, "MEAN_MOTION_DDOT": 0}, "tle": {"line1": "1 34589U 93036WB  25343.50922929  .00000522  00000+0  37002-3 0  9998", "line2": "2 34589  73.9254  61.5361 0251793   5.5277  13.2328 13.86048570846678"}}, "geometry": {"type": "Point", "coordinates": [-125.15884232750001, 16.190088018495384]}}, {"type": "Feature", "properties": {"norad_id": 34590, "name": "COSMOS 2251 DEB", "group": "cosmos-2251-debris", "lat": -17.68129333018707, "lon": -38.6732522256114, "alt_km": 734.7388165116463, "timestamp": "2025-12-10T14:53:37.482642+00:00", "meta": {"OBJECT_NAME": "COSMOS 2251 DEB", "OBJECT_ID": "1993-036WC", "EPOCH": "2025-12-10T05:08:48.757344", "MEAN_MOTION": 14.54821259, "ECCENTRICITY": 0.00679633, "INCLINATION": 74.0436, "RA_OF_ASC_NODE": 327.3277, "ARG_OF_PERICENTER": 97.6764, "MEAN_ANOMALY": 278.6061, "EPHEMERIS_TYPE": 0, "CLASSIFICATION_TYPE": "U", "NORAD_CAT_ID": 34590, "ELEMENT_SET_NO": 999, "REV_AT_EPOCH": 89084, "BSTAR": 0.00020844818, "MEAN_MOTION_DOT": 8.93e-06, "MEAN_MOTION_DDOT": 0}, "tle": {"line1": "1 34590U 93036WC  25344.21445321  .00000893  00000+0  20845-3 0  9993", "line2": "2 34590  74.0436 327.3277 0067963  97.6764 278.6061 14.54821259890848"}}, "geometry": {"type": "Point", "coordinates": [-38.6732522256114, -17.68129333018707]}}]}